{"type": "FeatureCollection", "features": [{"type": "Feature", "geometry": {"type": "Point", "coordinates": [31.355082341798514, 0.5309834236908847]}, "properties": {"name": "Mubende Gold District", "mineral": "Gold", "status": "Active"}}, {"type": "Feature", "geometry": {"type": "Point", "coordinates": [31.416186197691577, 0.5731967441467486]}, "properties": {"name": "Mubende Gold District", "mineral": "Gold", "status": "Active"}}, {"type": "Feature", "geometry": {"type": "Point", "coordinates": [31.378347021436436, 0.5533384167846006]}, "properties": {"name": "Mubende Gold District", "mineral": "Gold", "status": "Active"}}, {"type": "Feature", "geometry": {"type": "Point", "coordinates": [31.361232773431034, 0.5919422302632181]}, "properties": {"name": "Mubende Gold District", "mineral": "Gold", "status": "Active"}}, {"type": "Feature", "geometry": {"type": "Point", "coordinates": [31.404375185106638, 0.5870442178347091]}, "properties": {"name": "Mubende Gold District", "mineral": "Gold", "status": "Active"}}, {"type": "Feature", "geometry": {"type": "Point", "coordinates": [31.369396146709764, 0.6032500694876985]}, "properties": {"name": "Mubende Gold District", "mineral": "Gold", "status": "Active"}}, {"type": "Feature", "geometry": {"type": "Point", "coordinates": [31.40880562113881, 0.5911549601883525]}, "properties": {"name": "Mubende Gold District", "mineral": "Gold", "status": "Active"}}, {"type": "Feature", "geometry": {"type": "Point", "coordinates": [34.282827990825936, 2.5062799731704795]}, "properties": {"name": "Karamoja Gold Fields", "mineral": "Gold", "status": "Active"}}, {"type": "Feature", "geometry": {"type": "Point", "coordinates": [34.31735841560831, 2.528184940662884]}, "properties": {"name": "Karamoja Gold Fields", "mineral": "Gold", "status": "Active"}}, {"type": "Feature", "geometry": {"type": "Point", "coordinates": [34.335612525138224, 2.532648315002381]}, "properties": {"name": "Karamoja Gold Fields", "mineral": "Gold", "status": "Active"}}, {"type": "Feature", "geometry": {"type": "Point", "coordinates": [34.33095409399077, 2.5022794433241335]}, "properties": {"name": "Karamoja Gold Fields", "mineral": "Gold", "status": "Active"}}, {"type": "Feature", "geometry": {"type": "Point", "coordinates": [34.32543238191305, 2.5213981255949047]}, "properties": {"name": "Karamoja Gold Fields", "mineral": "Gold", "status": "Active"}}, {"type": "Feature", "geometry": {"type": "Point", "coordinates": [34.37316725857042, 2.487479063835266]}, "properties": {"name": "Karamoja Gold Fields", "mineral": "Gold", "status": "Active"}}, {"type": "Feature", "geometry": {"type": "Point", "coordinates": [34.28002166653429, 2.5304990278968638]}, "properties": {"name": "Karamoja Gold Fields", "mineral": "Gold", "status": "Active"}}, {"type": "Feature", "geometry": {"type": "Point", "coordinates": [30.038616911489857, 0.15456310113061278]}, "properties": {"name": "Kilembe Copper/Cobalt", "mineral": "Copper/Cobalt", "status": "Historical/Reviving"}}, {"type": "Feature", "geometry": {"type": "Point", "coordinates": [29.987843339446847, 0.22304071156734864]}, "properties": {"name": "Kilembe Copper/Cobalt", "mineral": "Copper/Cobalt", "status": "Historical/Reviving"}}, {"type": "Feature", "geometry": {"type": "Point", "coordinates": [29.997564014715856, 0.2063452718725646]}, "properties": {"name": "Kilembe Copper/Cobalt", "mineral": "Copper/Cobalt", "status": "Historical/Reviving"}}, {"type": "Feature", "geometry": {"type": "Point", "coordinates": [30.054094325720005, 0.15531482375415004]}, "properties": {"name": "Kilembe Copper/Cobalt", "mineral": "Copper/Cobalt", "status": "Historical/Reviving"}}, {"type": "Feature", "geometry": {"type": "Point", "coordinates": [29.977439313965736, 0.19976200215877793]}, "properties": {"name": "Kilembe Copper/Cobalt", "mineral": "Copper/Cobalt", "status": "Historical/Reviving"}}, {"type": "Feature", "geometry": {"type": "Point", "coordinates": [30.05957563128182, 0.16475042000822848]}, "properties": {"name": "Kilembe Copper/Cobalt", "mineral": "Copper/Cobalt", "status": "Historical/Reviving"}}, {"type": "Feature", "geometry": {"type": "Point", "coordinates": [30.05412103628286, 0.22792602515341026]}, "properties": {"name": "Kilembe Copper/Cobalt", "mineral": "Copper/Cobalt", "status": "Historical/Reviving"}}, {"type": "Feature", "geometry": {"type": "Point", "coordinates": [34.21644713298033, 0.6682671915516147]}, "properties": {"name": "Tororo Limestone", "mineral": "Limestone/Cement", "status": "Active"}}, {"type": "Feature", "geometry": {"type": "Point", "coordinates": [34.16588279917179, 0.7088689649382893]}, "properties": {"name": "Tororo Limestone", "mineral": "Limestone/Cement", "status": "Active"}}, {"type": "Feature", "geometry": {"type": "Point", "coordinates": [34.21450263187804, 0.6870386898447582]}, "properties": {"name": "Tororo Limestone", "mineral": "Limestone/Cement", "status": "Active"}}, {"type": "Feature", "geometry": {"type": "Point", "coordinates": [34.1977001061501, 0.64128723313419]}, "properties": {"name": "Tororo Limestone", "mineral": "Limestone/Cement", "status": "Active"}}, {"type": "Feature", "geometry": {"type": "Point", "coordinates": [34.19269552307776, 0.7271621213702364]}, "properties": {"name": "Tororo Limestone", "mineral": "Limestone/Cement", "status": "Active"}}, {"type": "Feature", "geometry": {"type": "Point", "coordinates": [30.013427557282647, 0.29240257477907594]}, "properties": {"name": "Hima Cement Limestone", "mineral": "Limestone/Cement", "status": "Active"}}, {"type": "Feature", "geometry": {"type": "Point", "coordinates": [30.09507231768373, 0.2992790758970641]}, "properties": {"name": "Hima Cement Limestone", "mineral": "Limestone/Cement", "status": "Active"}}, {"type": "Feature", "geometry": {"type": "Point", "coordinates": [30.083241412053525, 0.2615586675175699]}, "properties": {"name": "Hima Cement Limestone", "mineral": "Limestone/Cement", "status": "Active"}}, {"type": "Feature", "geometry": {"type": "Point", "coordinates": [30.0356402335792, 0.3258736778623065]}, "properties": {"name": "Hima Cement Limestone", "mineral": "Limestone/Cement", "status": "Active"}}, {"type": "Feature", "geometry": {"type": "Point", "coordinates": [30.94078005957955, 1.2677646132203644]}, "properties": {"name": "Albertine Oil Graben (Kingfisher)", "mineral": "Oil & Gas", "status": "Development"}}, {"type": "Feature", "geometry": {"type": "Point", "coordinates": [30.97914404703498, 1.2342930068252218]}, "properties": {"name": "Albertine Oil Graben (Kingfisher)", "mineral": "Oil & Gas", "status": "Development"}}, {"type": "Feature", "geometry": {"type": "Point", "coordinates": [30.966991892788155, 1.2244869776251137]}, "properties": {"name": "Albertine Oil Graben (Kingfisher)", "mineral": "Oil & Gas", "status": "Development"}}, {"type": "Feature", "geometry": {"type": "Point", "coordinates": [30.95541490091057, 1.2024242120483728]}, "properties": {"name": "Albertine Oil Graben (Kingfisher)", "mineral": "Oil & Gas", "status": "Development"}}, {"type": "Feature", "geometry": {"type": "Point", "coordinates": [30.924714270847637, 1.2678091807098866]}, "properties": {"name": "Albertine Oil Graben (Kingfisher)", "mineral": "Oil & Gas", "status": "Development"}}, {"type": "Feature", "geometry": {"type": "Point", "coordinates": [30.896402360311892, 1.276986462086075]}, "properties": {"name": "Albertine Oil Graben (Kingfisher)", "mineral": "Oil & Gas", "status": "Development"}}, {"type": "Feature", "geometry": {"type": "Point", "coordinates": [30.92651871532136, 1.2656023577780544]}, "properties": {"name": "Albertine Oil Graben (Kingfisher)", "mineral": "Oil & Gas", "status": "Development"}}, {"type": "Feature", "geometry": {"type": "Point", "coordinates": [31.378358266479754, 2.002427348710959]}, "properties": {"name": "Tilenga Oil Project", "mineral": "Oil & Gas", "status": "Development"}}, {"type": "Feature", "geometry": {"type": "Point", "coordinates": [31.436528071414692, 1.9951081674737277]}, "properties": {"name": "Tilenga Oil Project", "mineral": "Oil & Gas", "status": "Development"}}, {"type": "Feature", "geometry": {"type": "Point", "coordinates": [31.469624380118248, 1.9764221863881821]}, "properties": {"name": "Tilenga Oil Project", "mineral": "Oil & Gas", "status": "Development"}}, {"type": "Feature", "geometry": {"type": "Point", "coordinates": [31.402479917859612, 2.0406185912330703]}, "properties": {"name": "Tilenga Oil Project", "mineral": "Oil & Gas", "status": "Development"}}, {"type": "Feature", "geometry": {"type": "Point", "coordinates": [31.458293470591588, 2.0319954063043353]}, "properties": {"name": "Tilenga Oil Project", "mineral": "Oil & Gas", "status": "Development"}}, {"type": "Feature", "geometry": {"type": "Point", "coordinates": [31.397288489250197, 2.005622411867785]}, "properties": {"name": "Tilenga Oil Project", "mineral": "Oil & Gas", "status": "Development"}}, {"type": "Feature", "geometry": {"type": "Point", "coordinates": [31.403028103644537, 1.9852766418599708]}, "properties": {"name": "Tilenga Oil Project", "mineral": "Oil & Gas", "status": "Development"}}, {"type": "Feature", "geometry": {"type": "Point", "coordinates": [34.15181068779477, 0.6827207816823817]}, "properties": {"name": "Sukulu Phosphate", "mineral": "Phosphate/Fertilizer", "status": "Active"}}, {"type": "Feature", "geometry": {"type": "Point", "coordinates": [34.13965125509197, 0.6657507405139682]}, "properties": {"name": "Sukulu Phosphate", "mineral": "Phosphate/Fertilizer", "status": "Active"}}, {"type": "Feature", "geometry": {"type": "Point", "coordinates": [34.19715107899494, 0.6919014615487435]}, "properties": {"name": "Sukulu Phosphate", "mineral": "Phosphate/Fertilizer", "status": "Active"}}, {"type": "Feature", "geometry": {"type": "Point", "coordinates": [30.35514228456441, -0.3032633655587953]}, "properties": {"name": "Buhweju Gold", "mineral": "Gold", "status": "Artisanal"}}, {"type": "Feature", "geometry": {"type": "Point", "coordinates": [30.316668024374895, -0.2961377493609318]}, "properties": {"name": "Buhweju Gold", "mineral": "Gold", "status": "Artisanal"}}, {"type": "Feature", "geometry": {"type": "Point", "coordinates": [30.31084222428511, -0.35884914537238455]}, "properties": {"name": "Buhweju Gold", "mineral": "Gold", "status": "Artisanal"}}, {"type": "Feature", "geometry": {"type": "Point", "coordinates": [30.37452052408962, -0.32734828183545894]}, "properties": {"name": "Buhweju Gold", "mineral": "Gold", "status": "Artisanal"}}, {"type": "Feature", "geometry": {"type": "Point", "coordinates": [30.301580823682794, -0.29728914118770705]}, "properties": {"name": "Buhweju Gold", "mineral": "Gold", "status": "Artisanal"}}, {"type": "Feature", "geometry": {"type": "Point", "coordinates": [30.322052102125813, -0.2894185405058849]}, "properties": {"name": "Buhweju Gold", "mineral": "Gold", "status": "Artisanal"}}, {"type": "Feature", "geometry": {"type": "Point", "coordinates": [30.344276746345564, -0.34611070128165033]}, "properties": {"name": "Buhweju Gold", "mineral": "Gold", "status": "Artisanal"}}, {"type": "Feature", "geometry": {"type": "Point", "coordinates": [30.286172797926202, -0.2734256988764672]}, "properties": {"name": "Buhweju Gold", "mineral": "Gold", "status": "Artisanal"}}, {"type": "Feature", "geometry": {"type": "Point", "coordinates": [33.55837458055214, 0.5355930806765039]}, "properties": {"name": "Makuutu Rare Earth Elements", "mineral": "Rare Earths", "status": "Exploration"}}, {"type": "Feature", "geometry": {"type": "Point", "coordinates": [33.56356324765288, 0.5648832620441077]}, "properties": {"name": "Makuutu Rare Earth Elements", "mineral": "Rare Earths", "status": "Exploration"}}, {"type": "Feature", "geometry": {"type": "Point", "coordinates": [33.54416017305037, 0.5514177567181772]}, "properties": {"name": "Makuutu Rare Earth Elements", "mineral": "Rare Earths", "status": "Exploration"}}, {"type": "Feature", "geometry": {"type": "Point", "coordinates": [33.53322007878596, 0.5317106722889612]}, "properties": {"name": "Makuutu Rare Earth Elements", "mineral": "Rare Earths", "status": "Exploration"}}, {"type": "Feature", "geometry": {"type": "Point", "coordinates": [33.60469990462915, 0.5499239647168339]}, "properties": {"name": "Makuutu Rare Earth Elements", "mineral": "Rare Earths", "status": "Exploration"}}, {"type": "Feature", "geometry": {"type": "Point", "coordinates": [33.57909706429765, 0.6255693485668551]}, "properties": {"name": "Makuutu Rare Earth Elements", "mineral": "Rare Earths", "status": "Exploration"}}, {"type": "Feature", "geometry": {"type": "Point", "coordinates": [33.5572037637138, 0.6197852630787188]}, "properties": {"name": "Makuutu Rare Earth Elements", "mineral": "Rare Earths", "status": "Exploration"}}, {"type": "Feature", "geometry": {"type": "Point", "coordinates": [34.30506021985424, 0.7762238496472891]}, "properties": {"name": "Namekara Vermiculite", "mineral": "Vermiculite", "status": "Active"}}, {"type": "Feature", "geometry": {"type": "Point", "coordinates": [34.295800060587304, 0.7609013106039951]}, "properties": {"name": "Namekara Vermiculite", "mineral": "Vermiculite", "status": "Active"}}, {"type": "Feature", "geometry": {"type": "Point", "coordinates": [34.29812536241638, 0.8516018807127516]}, "properties": {"name": "Namekara Vermiculite", "mineral": "Vermiculite", "status": "Active"}}]}